H1 CPF  1  DLR 2022 09 05 10  7482 technosat            
H2  1704205 6203    42829 2022 09 05 00 00 00 2022 09 12 00 00 00    60 1 1  0 0 0
H9
10 0 59833  14400.000000  0      -4239642.632      -5493534.569       -716928.423
10 0 59833  14460.000000  0      -4273265.741      -5391716.920      -1162525.094
10 0 59833  14520.000000  0      -4287912.267      -5266995.132      -1603193.564
10 0 59833  14580.000000  0      -4283334.537      -5120075.229      -2037069.864
10 0 59833  14640.000000  0      -4259372.909      -4951758.304      -2462321.395
10 0 59833  14700.000000  0      -4215956.989      -4762936.014      -2877154.737
10 0 59833  14760.000000  0      -4153106.419      -4554585.699      -3279823.200
10 0 59833  14820.000000  0      -4070931.216      -4327765.147      -3668634.118
10 0 59833  14880.000000  0      -3969631.691      -4083607.050      -4041955.826
10 0 59833  14940.000000  0      -3849497.957      -3823313.202      -4398224.321
10 0 59833  15000.000000  0      -3710909.016      -3548148.422      -4735949.607
10 0 59833  15060.000000  0      -3554331.423      -3259434.259      -5053721.648
10 0 59833  15120.000000  0      -3380317.558      -2958542.529      -5350215.913
10 0 59833  15180.000000  0      -3189503.528      -2646888.723      -5624198.517
10 0 59833  15240.000000  0      -2982606.712      -2325925.336      -5874530.972
10 0 59833  15300.000000  0      -2760422.958      -1997135.106      -6100174.560
10 0 59833  15360.000000  0      -2523823.397      -1662024.177      -6300194.267
10 0 59833  15420.000000  0      -2273750.923      -1322115.265      -6473762.238
10 0 59833  15480.000000  0      -2011216.387       -978940.855      -6620160.797
10 0 59833  15540.000000  0      -1737294.510       -634036.438      -6738785.008
10 0 59833  15600.000000  0      -1453119.555       -288933.846      -6829144.791
10 0 59833  15660.000000  0      -1159880.781         54845.287      -6890866.677
10 0 59833  15720.000000  0       -858817.613        395795.970      -6923695.202
10 0 59833  15780.000000  0       -551214.540        732436.228      -6927493.869
10 0 59833  15840.000000  0       -238395.833       1063313.346      -6902245.593
10 0 59833  15900.000000  0         78279.892       1387009.834      -6848052.750
10 0 59833  15960.000000  0        397425.286       1702149.266      -6765136.986
10 0 59833  16020.000000  0        717630.206       2007402.056      -6653838.553
10 0 59833  16080.000000  0       1037467.813       2301490.933      -6514615.039
10 0 59833  16140.000000  0       1355500.686       2583196.151      -6348039.727
10 0 59833  16200.000000  0       1670287.081       2851360.556      -6154799.602
10 0 59833  16260.000000  0       1980387.340       3104894.331      -5935692.821
10 0 59833  16320.000000  0       2284370.339       3342779.391      -5691625.783
10 0 59833  16380.000000  0       2580819.958       3564073.527      -5423609.812
10 0 59833  16440.000000  0       2868341.602       3767914.285      -5132757.432
10 0 59833  16500.000000  0       3145568.754       3953522.519      -4820278.171
10 0 59833  16560.000000  0       3411169.500       4120205.570      -4487473.937
10 0 59833  16620.000000  0       3663852.981       4267360.074      -4135733.954
10 0 59833  16680.000000  0       3902375.754       4394474.383      -3766529.322
10 0 59833  16740.000000  0       4125548.077       4501130.580      -3381407.135
10 0 59833  16800.000000  0       4332239.969       4587006.044      -2981984.167
10 0 59833  16860.000000  0       4521387.017       4651874.547      -2569940.247
10 0 59833  16920.000000  0       4691995.986       4695606.950      -2147011.379
10 0 59833  16980.000000  0       4843150.249       4718171.480      -1714982.507
10 0 59833  17040.000000  0       4974014.863       4719633.462      -1275679.884
10 0 59833  17100.000000  0       5083841.209       4700154.553       -830963.258
10 0 59833  17160.000000  0       5171971.274       4659991.561       -382717.883
10 0 59833  17220.000000  0       5237841.502       4599494.773         67153.635
10 0 59833  17280.000000  0       5280986.238       4519105.867        516739.585
10 0 59833  17340.000000  0       5301040.769       4419355.361        964127.502
10 0 59833  17400.000000  0       5297743.868       4300859.592       1407412.570
10 0 59833  17460.000000  0       5270939.873       4164317.289       1844706.037
10 0 59833  17520.000000  0       5220580.193       4010505.686       2274143.637
10 0 59833  17580.000000  0       5146724.201       3840276.246       2693893.847
10 0 59833  17640.000000  0       5049539.625       3654550.064       3102165.976
10 0 59833  17700.000000  0       4929302.398       3454312.936       3497218.061
10 0 59833  17760.000000  0       4786395.970       3240610.129       3877364.547
10 0 59833  17820.000000  0       4621310.067       3014540.853       4240983.665
10 0 59833  17880.000000  0       4434638.995       2777252.499       4586524.363
10 0 59833  17940.000000  0       4227079.540       2529934.859       4912513.117
10 0 59833  18000.000000  0       3999428.039       2273814.024       5217560.463
10 0 59833  18060.000000  0       3752577.060       2010146.196       5500366.816
10 0 59833  18120.000000  0       3487511.754       1740211.425       5759728.008
10 0 59833  18180.000000  0       3205305.700       1465307.242       5994540.356
10 0 59833  18240.000000  0       2907116.359       1186742.291       6203805.231
10 0 59833  18300.000000  0       2594180.137        905830.016       6386633.134
10 0 59833  18360.000000  0       2267807.132        623882.467       6542247.342
10 0 59833  18420.000000  0       1929375.521        342204.156       6669987.153
10 0 59833  18480.000000  0       1580325.616         62085.987       6769310.649
10 0 59833  18540.000000  0       1222153.592       -215200.717       6839796.968
10 0 59833  18600.000000  0        856404.911       -488410.099       6881147.991
10 0 59833  18660.000000  0        484667.569       -756327.425       6893189.449
10 0 59833  18720.000000  0        108565.114      -1017774.487       6875871.649
10 0 59833  18780.000000  0       -270250.543      -1271614.861       6829269.625
10 0 59833  18840.000000  0       -650106.444      -1516758.906       6753582.790
10 0 59833  18900.000000  0      -1029316.067      -1752168.501       6649134.036
10 0 59833  18960.000000  0      -1406186.826      -1976861.463       6516368.320
10 0 59833  19020.000000  0      -1779027.605      -2189915.636       6355850.835
10 0 59833  19080.000000  0      -2146156.371      -2390472.707       6168264.764
10 0 59833  19140.000000  0      -2505907.831      -2577741.756       5954408.589
10 0 59833  19200.000000  0      -2856641.195      -2751002.540       5715192.888
10 0 59833  19260.000000  0      -3196747.926      -2909608.370       5451636.495
10 0 59833  19320.000000  0      -3524659.293      -3052988.560       5164862.133
10 0 59833  19380.000000  0      -3838853.742      -3180650.535       4856091.652
10 0 59833  19440.000000  0      -4137864.127      -3292181.532       4526640.828
10 0 59833  19500.000000  0      -4420284.733      -3387249.886       4177913.763
10 0 59833  19560.000000  0      -4684778.052      -3465605.934       3811396.861
10 0 59833  19620.000000  0      -4930081.260      -3527082.487       3428652.470
10 0 59833  19680.000000  0      -5155012.440      -3571594.926       3031312.188
10 0 59833  19740.000000  0      -5358476.477      -3599140.913       2621069.793
10 0 59833  19800.000000  0      -5539470.551      -3609799.662       2199673.817
10 0 59833  19860.000000  0      -5697089.163      -3603730.777       1768919.856
10 0 59833  19920.000000  0      -5830528.707      -3581172.682       1330642.685
10 0 59833  19980.000000  0      -5939091.565      -3542440.622        886708.188
10 0 59833  20040.000000  0      -6022189.691      -3487924.305        439005.173
10 0 59833  20100.000000  0      -6079347.678      -3418085.203        -10562.912
10 0 59833  20160.000000  0      -6110205.290      -3333453.500       -460086.355
10 0 59833  20220.000000  0      -6114519.415      -3234624.669       -907657.595
10 0 59833  20280.000000  0      -6092165.390      -3122255.738      -1351379.598
10 0 59833  20340.000000  0      -6043137.705      -2997061.249      -1789374.082
10 0 59833  20400.000000  0      -5967550.161      -2859809.004      -2219789.568
10 0 59833  20460.000000  0      -5865635.509      -2711315.597      -2640809.268
10 0 59833  20520.000000  0      -5737744.504      -2552441.749      -3050658.818
10 0 59833  20580.000000  0      -5584344.384      -2384087.472      -3447613.729
10 0 59833  20640.000000  0      -5406016.825      -2207187.096      -3830006.545
10 0 59833  20700.000000  0      -5203455.399      -2022704.197      -4196233.691
10 0 59833  20760.000000  0      -4977462.537      -1831626.480      -4544762.006
10 0 59833  20820.000000  0      -4728946.026      -1634960.599      -4874134.933
10 0 59833  20880.000000  0      -4458915.023      -1433726.951      -5182978.338
10 0 59833  20940.000000  0      -4168475.633      -1228954.467      -5470005.895
10 0 59833  21000.000000  0      -3858826.120      -1021675.481      -5734024.040
10 0 59833  21060.000000  0      -3531251.755       -812920.653      -5973936.536
10 0 59833  21120.000000  0      -3187119.330       -603713.976      -6188748.601
10 0 59833  21180.000000  0      -2827871.368       -395067.909      -6377570.607
10 0 59833  21240.000000  0      -2455020.052       -187978.655      -6539621.391
10 0 59833  21300.000000  0      -2070140.821         16578.416      -6674231.099
10 0 59833  21360.000000  0      -1674865.797        217653.152      -6780843.531
10 0 59833  21420.000000  0      -1270877.071        414324.813      -6859018.153
10 0 59833  21480.000000  0       -859899.751        605706.154      -6908431.723
10 0 59833  21540.000000  0       -443694.822        790947.305      -6928879.429
99
